IRIDIUM 33 DEB          
1 34928U 97051NH  17345.83330113  .00000979  00000-0  21070-3 0  9998
2 34928  86.4046 183.6490 0031553 285.8858  73.8873 14.57229302460324
